OBJECT_NAME,OBJECT_ID,EPOCH,MEAN_MOTION,ECCENTRICITY,INCLINATION,RA_OF_ASC_NODE,ARG_OF_PERICENTER,MEAN_ANOMALY,EPHEMERIS_TYPE,CLASSIFICATION_TYPE,NORAD_CAT_ID,ELEMENT_SET_NO,REV_AT_EPOCH,BSTAR,MEAN_MOTION_DOT,MEAN_MOTION_DDOT,OBJECT_TYPE
STARLINK-32338,2024-183L,2026-03-21T07:24:17.817120,15.30188384,.00011885,53.1609,88.3062,83.1629,276.9507,0,U,61519,999,8143,-.21759555E-4,-.1003E-4,0,Active
STARLINK-32306,2024-183M,2026-03-21T07:19:44.067360,15.30201366,.00008834,53.1601,88.2855,90.2172,269.8930,0,U,61520,999,8143,.48917851E-4,.109E-4,0,Active
STARLINK-32297,2024-183N,2026-03-21T07:15:10.632096,15.30192238,.00011019,53.1599,88.2653,62.8287,297.2826,0,U,61521,999,8143,.82894599E-4,.2096E-4,0,Active
STARLINK-32260,2024-183P,2026-03-21T05:36:34.161408,15.30196495,.00012185,53.1600,88.5482,77.9442,282.1695,0,U,61522,999,8142,.38492047E-4,.781E-5,0,Active
STARLINK-32305,2024-183Q,2026-03-21T06:23:40.569792,15.30213433,.0000649,53.1605,88.7572,61.0977,299.0088,0,U,61523,999,8142,-.27415964E-3,-.8473E-4,0,Active
STARLINK-32296,2024-183R,2026-03-21T07:06:03.978432,15.30195508,.00013604,53.1608,88.2250,81.2570,278.8585,0,U,61524,999,8143,.57177461E-4,.1334E-4,0,Active
STARLINK-32298,2024-183S,2026-03-21T05:27:27.075744,15.30190662,.00012724,53.1604,88.5089,78.0302,282.0841,0,U,61525,999,8142,.93871777E-4,.2421E-4,0,Active
STARLINK-32293,2024-183T,2026-03-21T05:23:04.284960,15.30191443,.00013521,53.1596,89.1977,111.6724,248.4421,0,U,61526,999,8141,.92954008E-4,.2394E-4,0,Active
STARLINK-32313,2024-183U,2026-03-21T06:47:59.349984,15.30195528,.00014391,53.1603,88.8543,87.3199,272.7966,0,U,61527,999,8142,.53306577E-4,.122E-4,0,Active
STARLINK-32319,2024-183V,2026-03-20T18:23:09.928032,15.30196935,.00013281,53.1610,91.3166,78.5221,281.5929,0,U,61528,999,8134,.61414179E-4,.146E-4,0,Active
STARLINK-32351,2024-183W,2026-03-21T04:30:28.232928,15.30196612,.00011456,53.1600,86.1557,93.2362,266.8769,0,U,61529,999,8145,.56077042E-4,.1302E-4,0,Active
STARLINK-32261,2024-183X,2026-03-20T10:10:06.893760,15.30217135,.00014201,53.1599,92.7494,68.5474,291.5678,0,U,61530,999,8129,.1922425E-3,.5341E-4,0,Active
STARLINK-32358,2024-183Y,2026-03-21T04:34:25.621248,15.30195904,.00012257,53.1600,89.0028,91.5457,268.5685,0,U,61531,999,8141,.12968528E-3,.3483E-4,0,Active
STARLINK-11354 [DTC],2024-184A,2026-03-20T18:03:07.812000,15.69729604,.00006671,53.1612,181.8158,80.7061,279.4032,0,U,61532,999,8215,.2483224E-4,.2424E-4,0,Active
STARLINK-11323 [DTC],2024-184B,2026-03-20T23:55:45.122592,15.69718483,.00010191,53.1569,180.4965,86.5129,273.6005,0,U,61533,999,8219,.18752787E-4,.1685E-4,0,Active
STARLINK-11338 [DTC],2024-184C,2026-03-21T00:02:49.065792,15.69714809,.00010825,53.1604,180.5284,102.7398,257.3741,0,U,61534,999,8219,.8973284E-5,.499E-5,0,Active
STARLINK-11362 [DTC],2024-184D,2026-03-20T23:41:37.040064,15.69723726,.00003345,53.1632,180.4310,101.4747,258.6308,0,U,61535,999,8219,.14502728E-4,.1171E-4,0,Active
STARLINK-11295 [DTC],2024-184E,2026-03-20T23:48:42.317280,15.69773442,.00008351,53.1611,180.4635,88.9630,271.1483,0,U,61536,999,8219,-.75191356E-4,-.9711E-4,0,Active
STARLINK-11331 [DTC],2024-184F,2026-03-21T06:00:02.999808,15.94257328,.00128192,53.1474,176.0729,356.7065,92.4390,0,U,61537,999,603,.13322408E-2,.510345E-2,.11569975E-3,Active
STARLINK-11325 [DTC],2024-184G,2026-03-20T23:27:31.132224,15.69700831,.00012626,53.1597,180.3654,83.7225,276.3937,0,U,61538,999,8219,-.5489345E-5,-.1253E-4,0,Active
STARLINK-11332 [DTC],2024-184H,2026-03-20T17:13:42.985632,15.69709130,.00012845,53.1597,181.6086,98.0200,262.0964,0,U,61539,999,8215,.11572386E-4,.813E-5,0,Active
STARLINK-11350 [DTC],2024-184J,2026-03-20T06:24:51.456672,15.69711905,.000117,53.1593,183.7515,92.7131,267.4021,0,U,61540,999,8208,-.28648E-5,-.936E-5,0,Active
STARLINK-11357 [DTC],2024-184K,2026-03-20T13:56:21.795648,15.69708308,.0001749,53.1587,182.8848,81.1410,278.9806,0,U,61541,999,8212,.46026E-5,-.32E-6,0,Active
STARLINK-11322 [DTC],2024-184L,2026-03-20T13:49:17.765184,15.69713218,.0001334,53.1597,182.8526,67.1189,292.9969,0,U,61542,999,8318,.11189E-4,.767E-5,0,Active
STARLINK-11364 [DTC],2024-184M,2026-03-20T16:45:35.936640,15.69711025,.00013233,53.1593,182.1916,87.4980,272.6189,0,U,61543,999,8214,.317236E-5,-.205E-5,0,Active
STARLINK-11349 [DTC],2024-184N,2026-03-20T16:38:31.993440,15.69713199,.00013476,53.1584,182.1584,77.1538,282.9630,0,U,61544,999,8214,.7485186E-5,.318E-5,0,Active
STARLINK-32406,2024-184P,2026-03-20T21:50:24.818208,15.30193734,.00009076,53.1589,321.9118,97.1886,262.9218,0,U,61545,999,8022,.34373348E-4,.659E-5,0,Active
STARLINK-32445,2024-184Q,2026-03-20T23:42:44.314560,15.30175198,.00016594,53.1614,321.6901,71.4898,288.6283,0,U,61546,999,8023,-.3833685E-4,-.1494E-4,0,Active
STARLINK-32411,2024-184R,2026-03-20T21:45:51.319872,15.30206702,.0001098,53.1597,321.8932,101.1168,258.9956,0,U,61547,999,8022,-.33707711E-4,-.1357E-4,0,Active
