STARLINK-32338          
1 61519U 24183L   26080.30853955 -.00001003  00000+0 -21760-4 0  9999
2 61519  53.1609  88.3062 0001188  83.1629 276.9507 15.30188384 81435
STARLINK-32306          
1 61520U 24183M   26080.30537115  .00001090  00000+0  48918-4 0  9996
2 61520  53.1601  88.2855 0000883  90.2172 269.8930 15.30201366 81438
STARLINK-32297          
1 61521U 24183N   26080.30220639  .00002096  00000+0  82895-4 0  9996
2 61521  53.1599  88.2653 0001101  62.8287 297.2826 15.30192238 81433
STARLINK-32260          
1 61522U 24183P   26080.23372872  .00000781  00000+0  38492-4 0  9999
2 61522  53.1600  88.5482 0001218  77.9442 282.1695 15.30196495 81424
STARLINK-32305          
1 61523U 24183Q   26080.26644178 -.00008473  00000+0 -27416-3 0  9995
2 61523  53.1605  88.7572 0000649  61.0977 299.0088 15.30213433 81421
STARLINK-32296          
1 61524U 24183R   26080.29587938  .00001334  00000+0  57177-4 0  9994
2 61524  53.1608  88.2250 0001360  81.2570 278.8585 15.30195508 81437
STARLINK-32298          
1 61525U 24183S   26080.22739671  .00002421  00000+0  93872-4 0  9991
2 61525  53.1604  88.5089 0001272  78.0302 282.0841 15.30190662 81423
STARLINK-32293          
1 61526U 24183T   26080.22435515  .00002394  00000+0  92954-4 0  9991
2 61526  53.1596  89.1977 0001352 111.6724 248.4421 15.30191443 81415
STARLINK-32313          
1 61527U 24183U   26080.28332581  .00001220  00000+0  53307-4 0  9993
2 61527  53.1603  88.8543 0001439  87.3199 272.7966 15.30195528 81424
STARLINK-32319          
1 61528U 24183V   26079.76608713  .00001460  00000+0  61414-4 0  9992
2 61528  53.1610  91.3166 0001328  78.5221 281.5929 15.30196935 81349
STARLINK-32351          
1 61529U 24183W   26080.18782677  .00001302  00000+0  56077-4 0  9997
2 61529  53.1600  86.1557 0001145  93.2362 266.8769 15.30196612 81454
STARLINK-32261          
1 61530U 24183X   26079.42369090  .00005341  00000+0  19224-3 0  9993
2 61530  53.1599  92.7494 0001420  68.5474 291.5678 15.30217135 81291
STARLINK-32358          
1 61531U 24183Y   26080.19057432  .00003483  00000+0  12969-3 0  9998
2 61531  53.1600  89.0028 0001225  91.5457 268.5685 15.30195904 81412
STARLINK-11354 [DTC]    
1 61532U 24184A   26079.75217375  .00002424  00000+0  24832-4 0  9991
2 61532  53.1612 181.8158 0000667  80.7061 279.4032 15.69729604 82152
STARLINK-11323 [DTC]    
1 61533U 24184B   26079.99705003  .00001685  00000+0  18753-4 0  9991
2 61533  53.1569 180.4965 0001019  86.5129 273.6005 15.69718483 82199
STARLINK-11338 [DTC]    
1 61534U 24184C   26080.00195678  .00000499  00000+0  89733-5 0  9996
2 61534  53.1604 180.5284 0001082 102.7398 257.3741 15.69714809 82198
STARLINK-11362 [DTC]    
1 61535U 24184D   26079.98723426  .00001171  00000+0  14503-4 0  9990
2 61535  53.1632 180.4310 0000334 101.4747 258.6308 15.69723726 82193
STARLINK-11295 [DTC]    
1 61536U 24184E   26079.99215645 -.00009711  00000+0 -75191-4 0  9991
2 61536  53.1611 180.4635 0000835  88.9630 271.1483 15.69773442 82191
STARLINK-11331 [DTC]    
1 61537U 24184F   26080.25003472  .00510345  11570-3  13322-2 0  9998
2 61537  53.1474 176.0729 0012819 356.7065  92.4390 15.94257328  6035
STARLINK-11325 [DTC]    
1 61538U 24184G   26079.97744366 -.00001253  00000+0 -54893-5 0  9998
2 61538  53.1597 180.3654 0001262  83.7225 276.3937 15.69700831 82197
STARLINK-11332 [DTC]    
1 61539U 24184H   26079.71785863  .00000813  00000+0  11572-4 0  9993
2 61539  53.1597 181.6086 0001284  98.0200 262.0964 15.69709130 82156
STARLINK-11350 [DTC]    
1 61540U 24184J   26079.26726223 -.00000936  00000+0 -28648-5 0  9991
2 61540  53.1593 183.7515 0001170  92.7131 267.4021 15.69711905 82080
STARLINK-11357 [DTC]    
1 61541U 24184K   26079.58080782 -.00000032  00000+0  46026-5 0  9996
2 61541  53.1587 182.8848 0001749  81.1410 278.9806 15.69708308 82123
STARLINK-11322 [DTC]    
1 61542U 24184L   26079.57590006  .00000767  00000+0  11189-4 0  9996
2 61542  53.1597 182.8526 0001334  67.1189 292.9969 15.69713218 83184
STARLINK-11364 [DTC]    
1 61543U 24184M   26079.69833260 -.00000205  00000+0  31724-5 0  9998
2 61543  53.1593 182.1916 0001323  87.4980 272.6189 15.69711025 82147
STARLINK-11349 [DTC]    
1 61544U 24184N   26079.69342585  .00000318  00000+0  74852-5 0  9997
2 61544  53.1584 182.1584 0001347  77.1538 282.9630 15.69713199 82149
STARLINK-32406          
1 61545U 24184P   26079.91000947  .00000659  00000+0  34373-4 0  9997
2 61545  53.1589 321.9118 0000907  97.1886 262.9218 15.30193734 80222
STARLINK-32445          
1 61546U 24184Q   26079.98801290 -.00001494  00000+0 -38337-4 0  9999
2 61546  53.1614 321.6901 0001659  71.4898 288.6283 15.30175198 80234
STARLINK-32411          
1 61547U 24184R   26079.90684398 -.00001357  00000+0 -33708-4 0  9995
2 61547  53.1597 321.8932 0001098 101.1168 258.9956 15.30206702 80221
